[{"OBJECT_NAME":"OBJECT A","OBJECT_ID":"2025-013A","EPOCH":"2026-03-09T23:29:31.895232","MEAN_MOTION":15.29260221,"ECCENTRICITY":0.0010321,"INCLINATION":97.6364,"RA_OF_ASC_NODE":244.5149,"ARG_OF_PERICENTER":282.3775,"MEAN_ANOMALY":77.6309,"EPHEMERIS_TYPE":0,"CLASSIFICATION_TYPE":"U","NORAD_CAT_ID":62729,"ELEMENT_SET_NO":999,"REV_AT_EPOCH":6276,"BSTAR":0.0013206527,"MEAN_MOTION_DOT":0.00037616,"MEAN_MOTION_DDOT":0},{"OBJECT_NAME":"STARLINK-33991","OBJECT_ID":"2025-110AC","EPOCH":"2026-03-09T03:27:54.678240","MEAN_MOTION":15.30199785,"ECCENTRICITY":0.00012684,"INCLINATION":53.1603,"RA_OF_ASC_NODE":28.9602,"ARG_OF_PERICENTER":89.8434,"MEAN_ANOMALY":270.2712,"EPHEMERIS_TYPE":0,"CLASSIFICATION_TYPE":"U","NORAD_CAT_ID":64122,"ELEMENT_SET_NO":999,"REV_AT_EPOCH":4579,"BSTAR":0.0016903776,"MEAN_MOTION_DOT":0.00050042,"MEAN_MOTION_DDOT":0}]
